{"type": "FeatureCollection", "features": [ {"type": "Feature", "properties": {"norad_id": 39574, "name": "GPM-CORE", "group": "resource", "lat": -61.21181195961348, "lon": 109.36396818892476, "alt_km": 429.4865758552378, "timestamp": "2025-12-07T05:38:09.565004+00:00", "meta": {"OBJECT_NAME": "GPM-CORE", "OBJECT_ID": "2014-009C", "EPOCH": "2025-12-06T16:06:32.955264", "MEAN_MOTION": 15.45338585, "ECCENTRICITY": 0.00105397, "INCLINATION": 64.9744, "RA_OF_ASC_NODE": 233.017, "ARG_OF_PERICENTER": 269.2106, "MEAN_ANOMALY": 90.7828, "EPHEMERIS_TYPE": 0, "CLASSIFICATION_TYPE": "U", "NORAD_CAT_ID": 39574, "ELEMENT_SET_NO": 999, "REV_AT_EPOCH": 66807, "BSTAR": 0.00047078342, "MEAN_MOTION_DOT": 0.00022445, "MEAN_MOTION_DDOT": 0}, "tle": {"line1": "1 39574U 14009C   25340.67121476  .00022445  00000+0  47078-3 0  9995", "line2": "2 39574  64.9744 233.0170 0010539 269.2106  90.7828 15.45338585668072"}}, "geometry": {"type": "Point", "coordinates": [109.36396818892476, -61.21181195961348]}}, {"type": "Feature", "properties": {"norad_id": 39634, "name": "SENTINEL-1A", "group": "resource", "lat": 22.808077138142316, "lon": -16.91055852800856, "alt_km": 694.99264291894, "timestamp": "2025-12-07T05:38:09.565015+00:00", "meta": {"OBJECT_NAME": "SENTINEL-1A", "OBJECT_ID": "2014-016A", "EPOCH": "2025-12-06T14:43:09.235776", "MEAN_MOTION": 14.59198572, "ECCENTRICITY": 0.0001257, "INCLINATION": 98.1803, "RA_OF_ASC_NODE": 345.9451, "ARG_OF_PERICENTER": 89.3693, "MEAN_ANOMALY": 270.765, "EPHEMERIS_TYPE": 0, "CLASSIFICATION_TYPE": "U", "NORAD_CAT_ID": 39634, "ELEMENT_SET_NO": 999, "REV_AT_EPOCH": 62193, "BSTAR": 9.2247808e-05, "MEAN_MOTION_DOT": 3.89e-06, "MEAN_MOTION_DDOT": 0}, "tle": {"line1": "1 39634U 14016A   25340.61330134  .00000389  00000+0  92248-4 0  9990", "line2": "2 39634  98.1803 345.9451 0001257  89.3693 270.7650 14.59198572621939"}}, "geometry": {"type": "Point", "coordinates": [-16.91055852800856, 22.808077138142316]}}, {"type": "Feature", "properties": {"norad_id": 39731, "name": "KAZEOSAT 1", "group": "resource", "lat": -23.044608092429872, "lon": 56.84523271318763, "alt_km": 757.5140017759504, "timestamp": "2025-12-07T05:38:09.565025+00:00", "meta": {"OBJECT_NAME": "KAZEOSAT 1", "OBJECT_ID": "2014-024A", "EPOCH": "2025-12-06T14:45:23.476320", "MEAN_MOTION": 14.42057323, "ECCENTRICITY": 0.00010737, "INCLINATION": 98.3443, "RA_OF_ASC_NODE": 52.6596, "ARG_OF_PERICENTER": 99.6966, "MEAN_ANOMALY": 260.4345, "EPHEMERIS_TYPE": 0, "CLASSIFICATION_TYPE": "U", "NORAD_CAT_ID": 39731, "ELEMENT_SET_NO": 999, "REV_AT_EPOCH": 61080, "BSTAR": 0.00016862178, "MEAN_MOTION_DOT": 5.11e-06, "MEAN_MOTION_DDOT": 0}, "tle": {"line1": "1 39731U 14024A   25340.61485505  .00000511  00000+0  16862-3 0  9994", "line2": "2 39731  98.3443  52.6596 0001073  99.6966 260.4345 14.42057323610805"}}, "geometry": {"type": "Point", "coordinates": [56.84523271318763, -23.044608092429872]}}, {"type": "Feature", "properties": {"norad_id": 39766, "name": "ALOS-2", "group": "resource", "lat": -20.891232293540085, "lon": -106.88750134708864, "alt_km": 636.4227485878346, "timestamp": "2025-12-07T05:38:09.565035+00:00", "meta": {"OBJECT_NAME": "ALOS-2", "OBJECT_ID": "2014-029A", "EPOCH": "2025-12-06T12:29:54.834720", "MEAN_MOTION": 14.79466407, "ECCENTRICITY": 0.00015175, "INCLINATION": 97.9236, "RA_OF_ASC_NODE": 75.4559, "ARG_OF_PERICENTER": 105.6706, "MEAN_ANOMALY": 254.4673, "EPHEMERIS_TYPE": 0, "CLASSIFICATION_TYPE": "U", "NORAD_CAT_ID": 39766, "ELEMENT_SET_NO": 999, "REV_AT_EPOCH": 62309, "BSTAR": 0.00049410274, "MEAN_MOTION_DOT": 3.64e-05, "MEAN_MOTION_DDOT": 0}, "tle": {"line1": "1 39766U 14029A   25340.52077355  .00003640  00000+0  49410-3 0  9998", "line2": "2 39766  97.9236  75.4559 0001517 105.6706 254.4673 14.79466407623092"}}, "geometry": {"type": "Point", "coordinates": [-106.88750134708864, -20.891232293540085]}}, {"type": "Feature", "properties": {"norad_id": 40010, "name": "KAZEOSAT 2", "group": "resource", "lat": -1.5711540910671464, "lon": -173.95810049958047, "alt_km": 619.7481448649132, "timestamp": "2025-12-07T05:38:09.565046+00:00", "meta": {"OBJECT_NAME": "KAZEOSAT 2", "OBJECT_ID": "2014-033A", "EPOCH": "2025-12-06T13:28:23.450592", "MEAN_MOTION": 14.85152672, "ECCENTRICITY": 0.00073915, "INCLINATION": 97.5516, "RA_OF_ASC_NODE": 185.1949, "ARG_OF_PERICENTER": 229.4973, "MEAN_ANOMALY": 130.56, "EPHEMERIS_TYPE": 0, "CLASSIFICATION_TYPE": "U", "NORAD_CAT_ID": 40010, "ELEMENT_SET_NO": 999, "REV_AT_EPOCH": 62036, "BSTAR": 0.00017485321, "MEAN_MOTION_DOT": 1.447e-05, "MEAN_MOTION_DDOT": 0}, "tle": {"line1": "1 40010U 14033A   25340.56138253  .00001447  00000+0  17485-3 0  9996", "line2": "2 40010  97.5516 185.1949 0007391 229.4973 130.5600 14.85152672620366"}}, "geometry": {"type": "Point", "coordinates": [-173.95810049958047, -1.5711540910671464]}}, {"type": "Feature", "properties": {"norad_id": 40011, "name": "HODOYOSHI-4", "group": "resource", "lat": 40.11034646819567, "lon": 163.98240793104438, "alt_km": 618.7570842285359, "timestamp": "2025-12-07T05:38:09.565057+00:00", "meta": {"OBJECT_NAME": "HODOYOSHI-4", "OBJECT_ID": "2014-033B", "EPOCH": "2025-12-06T14:55:23.109600", "MEAN_MOTION": 14.87448122, "ECCENTRICITY": 0.00228284, "INCLINATION": 97.5416, "RA_OF_ASC_NODE": 169.8074, "ARG_OF_PERICENTER": 221.4842, "MEAN_ANOMALY": 138.4643, "EPHEMERIS_TYPE": 0, "CLASSIFICATION_TYPE": "U", "NORAD_CAT_ID": 40011, "ELEMENT_SET_NO": 999, "REV_AT_EPOCH": 62017, "BSTAR": 0.0003996921, "MEAN_MOTION_DOT": 3.584e-05, "MEAN_MOTION_DDOT": 0}, "tle": {"line1": "1 40011U 14033B   25340.62179525  .00003584  00000+0  39969-3 0  9996", "line2": "2 40011  97.5416 169.8074 0022828 221.4842 138.4643 14.87448122620176"}}, "geometry": {"type": "Point", "coordinates": [163.98240793104438, 40.11034646819567]}}, {"type": "Feature", "properties": {"norad_id": 40013, "name": "DEIMOS-2", "group": "resource", "lat": 82.34640363312351, "lon": 133.21196119145944, "alt_km": 580.625032834123, "timestamp": "2025-12-07T05:38:09.565067+00:00", "meta": {"OBJECT_NAME": "DEIMOS-2", "OBJECT_ID": "2014-033D", "EPOCH": "2025-12-06T14:45:39.161376", "MEAN_MOTION": 14.92933384, "ECCENTRICITY": 9.827e-05, "INCLINATION": 97.6071, "RA_OF_ASC_NODE": 216.617, "ARG_OF_PERICENTER": 94.2977, "MEAN_ANOMALY": 265.8355, "EPHEMERIS_TYPE": 0, "CLASSIFICATION_TYPE": "U", "NORAD_CAT_ID": 40013, "ELEMENT_SET_NO": 999, "REV_AT_EPOCH": 60898, "BSTAR": 0.00046925981, "MEAN_MOTION_DOT": 4.816e-05, "MEAN_MOTION_DDOT": 0}, "tle": {"line1": "1 40013U 14033D   25340.61503659  .00004816  00000+0  46926-3 0  9996", "line2": "2 40013  97.6071 216.6170 0000982  94.2977 265.8355 14.92933384608981"}}, "geometry": {"type": "Point", "coordinates": [133.21196119145944, 82.34640363312351]}}, {"type": "Feature", "properties": {"norad_id": 40015, "name": "HODOYOSHI-3", "group": "resource", "lat": 18.941903354986167, "lon": 144.67590818817396, "alt_km": 622.9613037440258, "timestamp": "2025-12-07T05:38:09.565077+00:00", "meta": {"OBJECT_NAME": "HODOYOSHI-3", "OBJECT_ID": "2014-033F", "EPOCH": "2025-12-06T13:22:33.636000", "MEAN_MOTION": 14.84773828, "ECCENTRICITY": 0.00318313, "INCLINATION": 97.6196, "RA_OF_ASC_NODE": 146.6614, "ARG_OF_PERICENTER": 269.1116, "MEAN_ANOMALY": 90.6452, "EPHEMERIS_TYPE": 0, "CLASSIFICATION_TYPE": "U", "NORAD_CAT_ID": 40015, "ELEMENT_SET_NO": 999, "REV_AT_EPOCH": 61903, "BSTAR": 0.00039249437, "MEAN_MOTION_DOT": 3.307e-05, "MEAN_MOTION_DDOT": 0}, "tle": {"line1": "1 40015U 14033F   25340.55733375  .00003307  00000+0  39249-3 0  9995", "line2": "2 40015  97.6196 146.6614 0031831 269.1116  90.6452 14.84773828619037"}}, "geometry": {"type": "Point", "coordinates": [144.67590818817396, 18.941903354986167]}}, {"type": "Feature", "properties": {"norad_id": 40053, "name": "SPOT 7", "group": "resource", "lat": -37.29840477610418, "lon": -142.7843286780724, "alt_km": 697.8322988048903, "timestamp": "2025-12-07T05:38:09.565087+00:00", "meta": {"OBJECT_NAME": "SPOT 7", "OBJECT_ID": "2014-034A", "EPOCH": "2025-12-06T15:29:26.865312", "MEAN_MOTION": 14.60722244, "ECCENTRICITY": 0.00015282, "INCLINATION": 98.0915, "RA_OF_ASC_NODE": 42.8612, "ARG_OF_PERICENTER": 94.9925, "MEAN_ANOMALY": 265.145, "EPHEMERIS_TYPE": 0, "CLASSIFICATION_TYPE": "U", "NORAD_CAT_ID": 40053, "ELEMENT_SET_NO": 999, "REV_AT_EPOCH": 60902, "BSTAR": 0.00024617365, "MEAN_MOTION_DOT": 1.154e-05, "MEAN_MOTION_DDOT": 0}, "tle": {"line1": "1 40053U 14034A   25340.64544983  .00001154  00000+0  24617-3 0  9994", "line2": "2 40053  98.0915  42.8612 0001528  94.9925 265.1450 14.60722244609025"}}, "geometry": {"type": "Point", "coordinates": [-142.7843286780724, -37.29840477610418]}}, {"type": "Feature", "properties": {"norad_id": 40072, "name": "SKYSAT-B", "group": "resource", "lat": -13.560918219828137, "lon": -73.31711953204686, "alt_km": 614.9287541405729, "timestamp": "2025-12-07T05:38:09.565097+00:00", "meta": {"OBJECT_NAME": "SKYSAT-B", "OBJECT_ID": "2014-037D", "EPOCH": "2025-12-06T13:33:03.865248", "MEAN_MOTION": 14.8729167, "ECCENTRICITY": 0.00056411, "INCLINATION": 98.3603, "RA_OF_ASC_NODE": 283.9447, "ARG_OF_PERICENTER": 168.7784, "MEAN_ANOMALY": 191.3557, "EPHEMERIS_TYPE": 0, "CLASSIFICATION_TYPE": "U", "NORAD_CAT_ID": 40072, "ELEMENT_SET_NO": 999, "REV_AT_EPOCH": 61732, "BSTAR": 0.0003397521, "MEAN_MOTION_DOT": 3.005e-05, "MEAN_MOTION_DDOT": 0}, "tle": {"line1": "1 40072U 14037D   25340.56462807  .00003005  00000+0  33975-3 0  9997", "line2": "2 40072  98.3603 283.9447 0005641 168.7784 191.3557 14.87291670617323"}}, "geometry": {"type": "Point", "coordinates": [-73.31711953204686, -13.560918219828137]}}]}